[
  {
    "name": "ONEWEB-0597",
    "noradId": "54663",
    "line1": "1 54663U 22166X   26186.15199769  .00000074  00000+0  14860-3 0  9993",
    "line2": "2 54663  87.9239 240.4125 0001967  94.8206 265.3152 13.21828122173919"
  },
  {
    "name": "ONEWEB-0600",
    "noradId": "54664",
    "line1": "1 54664U 22166Y   26186.20921294  .00000300  00000+0  69541-3 0  9994",
    "line2": "2 54664  87.9240 240.3928 0001955  98.7448 261.3907 13.21823987173895"
  },
  {
    "name": "ONEWEB-0601",
    "noradId": "54665",
    "line1": "1 54665U 22166Z   26186.57926947  .00000124  00000+0  26808-3 0  9998",
    "line2": "2 54665  87.9239 240.3346 0001828  90.4281 269.7062 13.21824451174130"
  },
  {
    "name": "ONEWEB-0602",
    "noradId": "54666",
    "line1": "1 54666U 22166AA  26186.54477588  .00000014  00000+0  34166-5 0  9994",
    "line2": "2 54666  87.9239 240.3475 0001819 100.8058 259.3281 13.21827572173978"
  },
  {
    "name": "ONEWEB-0603",
    "noradId": "54667",
    "line1": "1 54667U 22166AB  26186.17218858  .00000061  00000+0  11724-3 0  9992",
    "line2": "2 54667  87.9251 240.3808 0001948  96.1286 264.0070 13.21827781173854"
  },
  {
    "name": "ONEWEB-0604",
    "noradId": "54668",
    "line1": "1 54668U 22166AC  26186.16039587  .00000027  00000+0  34421-4 0  9994",
    "line2": "2 54668  87.9248 240.3986 0002081  99.3169 260.8200 13.21823691173813"
  },
  {
    "name": "ONEWEB-0605",
    "noradId": "54669",
    "line1": "1 54669U 22166AD  26186.15368378  .00000027  00000+0  34519-4 0  9995",
    "line2": "2 54669  87.9242 240.4118 0002167  80.1039 280.0339 13.21827790173883"
  },
  {
    "name": "ONEWEB-0606",
    "noradId": "54670",
    "line1": "1 54670U 22166AE  26186.17555088  .00000084  00000+0  17249-3 0  9998",
    "line2": "2 54670  87.9242 240.4198 0002109 101.0844 259.0527 13.21825011173942"
  },
  {
    "name": "ONEWEB-0607",
    "noradId": "54671",
    "line1": "1 54671U 22166AF  26186.21762256  .00000016  00000+0  72725-5 0  9998",
    "line2": "2 54671  87.9245 240.3838 0001905  96.5517 263.5834 13.21825734173925"
  },
  {
    "name": "ONEWEB-0608",
    "noradId": "54672",
    "line1": "1 54672U 22166AG  26186.14861581  .00000078  00000+0  15640-3 0  9991",
    "line2": "2 54672  87.9251 240.3947 0001923  82.8302 277.3050 13.21823862173927"
  },
  {
    "name": "ONEWEB-0610",
    "noradId": "54673",
    "line1": "1 54673U 22166AH  26186.20416538  .00000036  00000+0  56570-4 0  9999",
    "line2": "2 54673  87.9240 240.3960 0001589  83.7881 276.3434 13.21825191173833"
  },
  {
    "name": "ONEWEB-0611",
    "noradId": "54674",
    "line1": "1 54674U 22166AJ  26186.19741500  .00000051  00000+0  91510-4 0  9998",
    "line2": "2 54674  87.9237 240.3932 0002187  99.7903 260.3478 13.21826110173828"
  },
  {
    "name": "ONEWEB-0612",
    "noradId": "54675",
    "line1": "1 54675U 22166AK  26186.13519569  .00000018  00000+0  11831-4 0  9992",
    "line2": "2 54675  87.9252 240.4031 0001950  93.1729 266.9628 13.21825981173800"
  },
  {
    "name": "ONEWEB-0615",
    "noradId": "54676",
    "line1": "1 54676U 22166AL  26186.56917326  .00000065  00000+0  12599-3 0  9996",
    "line2": "2 54676  87.9242 240.3297 0002168 104.1397 255.9978 13.21827668173876"
  },
  {
    "name": "ONEWEB-0655",
    "noradId": "54677",
    "line1": "1 54677U 22166AM  26186.16713832  .00000024  00000+0  25424-4 0  9996",
    "line2": "2 54677  87.9242 240.4106 0001798  99.5092 260.6245 13.21827868173810"
  },
  {
    "name": "ONEWEB-0659",
    "noradId": "54678",
    "line1": "1 54678U 22166AN  26186.18395669  .00000042  00000+0  69676-4 0  9990",
    "line2": "2 54678  87.9238 240.4071 0002135  96.4912 263.6465 13.21829144173906"
  }
]