{"fetched_at":"2026-07-06T08:46:38.495Z","source":"https://celestrak.org/NORAD/elements/gp.php?GROUP=oneweb&FORMAT=JSON","constellation":"oneweb","records":[{"OBJECT_NAME":"ONEWEB-0597","OBJECT_ID":"2022-166X","EPOCH":"2026-07-05T03:38:52.600416","CLASSIFICATION_TYPE":"U","MEAN_MOTION":13.21828122,"ECCENTRICITY":0.0001967,"INCLINATION":87.9239,"RA_OF_ASC_NODE":240.4125,"ARG_OF_PERICENTER":94.8206,"MEAN_ANOMALY":265.3152,"EPHEMERIS_TYPE":0,"NORAD_CAT_ID":54663,"ELEMENT_SET_NO":999,"REV_AT_EPOCH":17391,"BSTAR":0.0001486,"MEAN_MOTION_DOT":7.4e-7,"MEAN_MOTION_DDOT":0},{"OBJECT_NAME":"ONEWEB-0600","OBJECT_ID":"2022-166Y","EPOCH":"2026-07-05T05:01:15.998016","CLASSIFICATION_TYPE":"U","MEAN_MOTION":13.21823987,"ECCENTRICITY":0.0001955,"INCLINATION":87.924,"RA_OF_ASC_NODE":240.3928,"ARG_OF_PERICENTER":98.7448,"MEAN_ANOMALY":261.3907,"EPHEMERIS_TYPE":0,"NORAD_CAT_ID":54664,"ELEMENT_SET_NO":999,"REV_AT_EPOCH":17389,"BSTAR":0.00069541,"MEAN_MOTION_DOT":0.000003,"MEAN_MOTION_DDOT":0},{"OBJECT_NAME":"ONEWEB-0601","OBJECT_ID":"2022-166Z","EPOCH":"2026-07-05T13:54:08.882208","CLASSIFICATION_TYPE":"U","MEAN_MOTION":13.21824451,"ECCENTRICITY":0.00018286,"INCLINATION":87.9239,"RA_OF_ASC_NODE":240.3346,"ARG_OF_PERICENTER":90.4281,"MEAN_ANOMALY":269.7062,"EPHEMERIS_TYPE":0,"NORAD_CAT_ID":54665,"ELEMENT_SET_NO":999,"REV_AT_EPOCH":17413,"BSTAR":0.00026808233,"MEAN_MOTION_DOT":0.00000124,"MEAN_MOTION_DDOT":0},{"OBJECT_NAME":"ONEWEB-0602","OBJECT_ID":"2022-166AA","EPOCH":"2026-07-05T13:04:28.636032","CLASSIFICATION_TYPE":"U","MEAN_MOTION":13.21827572,"ECCENTRICITY":0.00018198,"INCLINATION":87.9239,"RA_OF_ASC_NODE":240.3475,"ARG_OF_PERICENTER":100.8058,"MEAN_ANOMALY":259.3281,"EPHEMERIS_TYPE":0,"NORAD_CAT_ID":54666,"ELEMENT_SET_NO":999,"REV_AT_EPOCH":17397,"BSTAR":0.000003416579,"MEAN_MOTION_DOT":1.4e-7,"MEAN_MOTION_DDOT":0},{"OBJECT_NAME":"ONEWEB-0603","OBJECT_ID":"2022-166AB","EPOCH":"2026-07-05T04:07:57.093312","CLASSIFICATION_TYPE":"U","MEAN_MOTION":13.21827781,"ECCENTRICITY":0.0001948,"INCLINATION":87.9251,"RA_OF_ASC_NODE":240.3808,"ARG_OF_PERICENTER":96.1286,"MEAN_ANOMALY":264.007,"EPHEMERIS_TYPE":0,"NORAD_CAT_ID":54667,"ELEMENT_SET_NO":999,"REV_AT_EPOCH":17385,"BSTAR":0.00011724,"MEAN_MOTION_DOT":6.1e-7,"MEAN_MOTION_DDOT":0},{"OBJECT_NAME":"ONEWEB-0604","OBJECT_ID":"2022-166AC","EPOCH":"2026-07-05T03:50:58.203168","CLASSIFICATION_TYPE":"U","MEAN_MOTION":13.21823691,"ECCENTRICITY":0.0002081,"INCLINATION":87.9248,"RA_OF_ASC_NODE":240.3986,"ARG_OF_PERICENTER":99.3169,"MEAN_ANOMALY":260.82,"EPHEMERIS_TYPE":0,"NORAD_CAT_ID":54668,"ELEMENT_SET_NO":999,"REV_AT_EPOCH":17381,"BSTAR":0.000034421,"MEAN_MOTION_DOT":2.7e-7,"MEAN_MOTION_DDOT":0},{"OBJECT_NAME":"ONEWEB-0605","OBJECT_ID":"2022-166AD","EPOCH":"2026-07-05T03:41:18.278592","CLASSIFICATION_TYPE":"U","MEAN_MOTION":13.2182779,"ECCENTRICITY":0.0002167,"INCLINATION":87.9242,"RA_OF_ASC_NODE":240.4118,"ARG_OF_PERICENTER":80.1039,"MEAN_ANOMALY":280.0339,"EPHEMERIS_TYPE":0,"NORAD_CAT_ID":54669,"ELEMENT_SET_NO":999,"REV_AT_EPOCH":17388,"BSTAR":0.000034519,"MEAN_MOTION_DOT":2.7e-7,"MEAN_MOTION_DDOT":0},{"OBJECT_NAME":"ONEWEB-0606","OBJECT_ID":"2022-166AE","EPOCH":"2026-07-05T04:12:47.596032","CLASSIFICATION_TYPE":"U","MEAN_MOTION":13.21825011,"ECCENTRICITY":0.0002109,"INCLINATION":87.9242,"RA_OF_ASC_NODE":240.4198,"ARG_OF_PERICENTER":101.0844,"MEAN_ANOMALY":259.0527,"EPHEMERIS_TYPE":0,"NORAD_CAT_ID":54670,"ELEMENT_SET_NO":999,"REV_AT_EPOCH":17394,"BSTAR":0.00017249,"MEAN_MOTION_DOT":8.4e-7,"MEAN_MOTION_DDOT":0},{"OBJECT_NAME":"ONEWEB-0607","OBJECT_ID":"2022-166AF","EPOCH":"2026-07-05T05:13:22.589184","CLASSIFICATION_TYPE":"U","MEAN_MOTION":13.21825734,"ECCENTRICITY":0.0001905,"INCLINATION":87.9245,"RA_OF_ASC_NODE":240.3838,"ARG_OF_PERICENTER":96.5517,"MEAN_ANOMALY":263.5834,"EPHEMERIS_TYPE":0,"NORAD_CAT_ID":54671,"ELEMENT_SET_NO":999,"REV_AT_EPOCH":17392,"BSTAR":0.0000072725,"MEAN_MOTION_DOT":1.6e-7,"MEAN_MOTION_DDOT":0},{"OBJECT_NAME":"ONEWEB-0608","OBJECT_ID":"2022-166AG","EPOCH":"2026-07-05T03:34:00.405984","CLASSIFICATION_TYPE":"U","MEAN_MOTION":13.21823862,"ECCENTRICITY":0.0001923,"INCLINATION":87.9251,"RA_OF_ASC_NODE":240.3947,"ARG_OF_PERICENTER":82.8302,"MEAN_ANOMALY":277.305,"EPHEMERIS_TYPE":0,"NORAD_CAT_ID":54672,"ELEMENT_SET_NO":999,"REV_AT_EPOCH":17392,"BSTAR":0.0001564,"MEAN_MOTION_DOT":7.8e-7,"MEAN_MOTION_DDOT":0},{"OBJECT_NAME":"ONEWEB-0610","OBJECT_ID":"2022-166AH","EPOCH":"2026-07-05T04:53:59.888832","CLASSIFICATION_TYPE":"U","MEAN_MOTION":13.21825191,"ECCENTRICITY":0.0001589,"INCLINATION":87.924,"RA_OF_ASC_NODE":240.396,"ARG_OF_PERICENTER":83.7881,"MEAN_ANOMALY":276.3434,"EPHEMERIS_TYPE":0,"NORAD_CAT_ID":54673,"ELEMENT_SET_NO":999,"REV_AT_EPOCH":17383,"BSTAR":0.00005657,"MEAN_MOTION_DOT":3.6e-7,"MEAN_MOTION_DDOT":0},{"OBJECT_NAME":"ONEWEB-0611","OBJECT_ID":"2022-166AJ","EPOCH":"2026-07-05T04:44:16.656000","CLASSIFICATION_TYPE":"U","MEAN_MOTION":13.2182611,"ECCENTRICITY":0.0002187,"INCLINATION":87.9237,"RA_OF_ASC_NODE":240.3932,"ARG_OF_PERICENTER":99.7903,"MEAN_ANOMALY":260.3478,"EPHEMERIS_TYPE":0,"NORAD_CAT_ID":54674,"ELEMENT_SET_NO":999,"REV_AT_EPOCH":17382,"BSTAR":0.00009151,"MEAN_MOTION_DOT":5.1e-7,"MEAN_MOTION_DDOT":0},{"OBJECT_NAME":"ONEWEB-0612","OBJECT_ID":"2022-166AK","EPOCH":"2026-07-05T03:14:40.907616","CLASSIFICATION_TYPE":"U","MEAN_MOTION":13.21825981,"ECCENTRICITY":0.000195,"INCLINATION":87.9252,"RA_OF_ASC_NODE":240.4031,"ARG_OF_PERICENTER":93.1729,"MEAN_ANOMALY":266.9628,"EPHEMERIS_TYPE":0,"NORAD_CAT_ID":54675,"ELEMENT_SET_NO":999,"REV_AT_EPOCH":17380,"BSTAR":0.000011831,"MEAN_MOTION_DOT":1.8e-7,"MEAN_MOTION_DDOT":0},{"OBJECT_NAME":"ONEWEB-0615","OBJECT_ID":"2022-166AL","EPOCH":"2026-07-05T13:39:36.569664","CLASSIFICATION_TYPE":"U","MEAN_MOTION":13.21827668,"ECCENTRICITY":0.00021684,"INCLINATION":87.9242,"RA_OF_ASC_NODE":240.3297,"ARG_OF_PERICENTER":104.1397,"MEAN_ANOMALY":255.9978,"EPHEMERIS_TYPE":0,"NORAD_CAT_ID":54676,"ELEMENT_SET_NO":999,"REV_AT_EPOCH":17387,"BSTAR":0.0001259894,"MEAN_MOTION_DOT":6.5e-7,"MEAN_MOTION_DDOT":0},{"OBJECT_NAME":"ONEWEB-0655","OBJECT_ID":"2022-166AM","EPOCH":"2026-07-05T04:00:40.750848","CLASSIFICATION_TYPE":"U","MEAN_MOTION":13.21827868,"ECCENTRICITY":0.0001798,"INCLINATION":87.9242,"RA_OF_ASC_NODE":240.4106,"ARG_OF_PERICENTER":99.5092,"MEAN_ANOMALY":260.6245,"EPHEMERIS_TYPE":0,"NORAD_CAT_ID":54677,"ELEMENT_SET_NO":999,"REV_AT_EPOCH":17381,"BSTAR":0.000025424,"MEAN_MOTION_DOT":2.4e-7,"MEAN_MOTION_DDOT":0},{"OBJECT_NAME":"ONEWEB-0659","OBJECT_ID":"2022-166AN","EPOCH":"2026-07-05T04:24:53.858016","CLASSIFICATION_TYPE":"U","MEAN_MOTION":13.21829144,"ECCENTRICITY":0.0002135,"INCLINATION":87.9238,"RA_OF_ASC_NODE":240.4071,"ARG_OF_PERICENTER":96.4912,"MEAN_ANOMALY":263.6465,"EPHEMERIS_TYPE":0,"NORAD_CAT_ID":54678,"ELEMENT_SET_NO":999,"REV_AT_EPOCH":17390,"BSTAR":0.000069676,"MEAN_MOTION_DOT":4.2e-7,"MEAN_MOTION_DDOT":0}]}
